{
    "links": {
        "self": "http://www.neowsapp.com/rest/v1/neo/3627110?api_key=iIulBulltgU6a56xZRHN4H3l9WmuAYTsLGpBGhQ2"
    },
    "id": "3627110",
    "neo_reference_id": "3627110",
    "name": "(2013 DB1)",
    "designation": "2013 DB1",
    "nasa_jpl_url": "http://ssd.jpl.nasa.gov/sbdb.cgi?sstr=3627110",
    "absolute_magnitude_h": 25.7,
    "estimated_diameter": {
        "kilometers": {
            "estimated_diameter_min": 0.0192555078,
            "estimated_diameter_max": 0.0430566244
        },
        "meters": {
            "estimated_diameter_min": 19.2555078188,
            "estimated_diameter_max": 43.0566244241
        },
        "miles": {
            "estimated_diameter_min": 0.0119648141,
            "estimated_diameter_max": 0.0267541378
        },
        "feet": {
            "estimated_diameter_min": 63.1742402722,
            "estimated_diameter_max": 141.2618956756
        }
    },
    "is_potentially_hazardous_asteroid": false,
    "close_approach_data": [
        {
            "close_approach_date": "2013-02-16",
            "close_approach_date_full": "2013-Feb-16 10:58",
            "epoch_date_close_approach": 1361012280000,
            "relative_velocity": {
                "kilometers_per_second": "4.6091384546",
                "kilometers_per_hour": "16592.8984364267",
                "miles_per_hour": "10310.1818090119"
            },
            "miss_distance": {
                "astronomical": "0.0886341423",
                "lunar": "34.4786813547",
                "kilometers": "13259478.897356901",
                "miles": "8239058.1366151938"
            },
            "orbiting_body": "Earth"
        }
    ],
    "orbital_data": {
        "orbit_id": "4",
        "orbit_determination_date": "2017-04-06 08:46:41",
        "first_observation_date": "2013-02-17",
        "last_observation_date": "2013-02-18",
        "data_arc_in_days": 1,
        "observations_used": 14,
        "orbit_uncertainty": "9",
        "minimum_orbit_intersection": ".0884763",
        "jupiter_tisserand_invariant": "4.130",
        "epoch_osculation": "2456341.5",
        "eccentricity": ".3644135495324053",
        "semi_major_axis": "1.693260558116257",
        "inclination": "5.643002796673765",
        "ascending_node_longitude": "144.0472708706609",
        "orbital_period": "804.7928610191686",
        "perihelion_distance": "1.07621346784989",
        "perihelion_argument": "2.340011378858744",
        "aphelion_distance": "2.310307648382623",
        "perihelion_time": "2456338.949997207743",
        "mean_anomaly": "1.140667430933703",
        "mean_motion": ".4473200713337658",
        "equinox": "J2000",
        "orbit_class": {
            "orbit_class_type": "AMO",
            "orbit_class_description": "Near-Earth asteroid orbits similar to that of 1221 Amor",
            "orbit_class_range": "1.017 AU < q (perihelion) < 1.3 AU"
        }
    },
    "is_sentry_object": false
}